0 SL-12 R/B(2)
1 15963U 85070F   13280.51820047 -.00000200  00000-0  10000-3 0  1477
2 15963 015.5632 002.8673 0012924 070.1594 289.9925 00.97806443 74363
0 SL-12 R/B(2)
1 15963U 85070F   13283.58538294 -.00000175  00000-0  10000-3 0  1489
2 15963 015.5644 002.8364 0012951 070.2218 289.9268 00.97805687 74399
0 SL-12 R/B(2)
1 15963U 85070F   13283.58542028  .00000000  00000-0  10000-3 0  1496
2 15963 015.5653 002.8371 0013127 070.4388 289.7167 00.97801233 74392
0 SL-12 R/B(2)
1 15963U 85070F   13286.65259834 -.00000106  00000-0  10000-3 0  1495
2 15963 015.5656 002.8056 0012485 071.6081 288.5291 00.97804139 74421
0 SL-12 R/B(2)
1 15963U 85070F   13288.69742288 -.00000067  00000-0  10000-3 0  1509
2 15963 015.5666 002.7854 0012430 071.4030 288.7266 00.97803449 74448
0 SL-12 R/B(2)
1 15963U 85070F   13290.74226173 -.00000055  00000-0  10000-3 0  1516
2 15963 015.5675 002.7649 0012395 071.9296 288.1948 00.97803324 74464
0 SL-12 R/B(2)
1 15963U 85070F   13293.80952895 -.00000093  00000-0  10000-3 0  1526
2 15963 015.5687 002.7340 0012483 071.8294 288.2959 00.97804202 74492
